ONEWEB-0197             
1 48236U 21031AC  25289.11668953  .00000141  00000+0  34672-3 0  9995
2 48236  87.9050 338.3100 0002162  96.7725 263.3651 13.14503870216129
ONEWEB-0194             
1 48237U 21031AD  25289.09621412 -.00000136  00000+0 -40100-3 0  9991
2 48237  87.9042 338.3276 0001686 103.4917 256.6401 13.14502536216298
ONEWEB-0193             
1 48238U 21031AE  25289.11206980  .00000187  00000+0  46968-3 0  9996
2 48238  87.9034 338.3219 0001571 107.1291 253.0010 13.14502130216248
ONEWEB-0191             
1 48239U 21031AF  25289.12316544  .00000279  00000+0  71825-3 0  9998
2 48239  87.9051 338.3031 0001822  97.2968 262.8369 13.14503826216102
ONEWEB-0195             
1 48240U 21031AG  25289.10017453 -.00001445  00000+0 -39325-2 0  9991
2 48240  87.9053 338.3044 0002014  98.4023 261.7335 13.14503315216080
ONEWEB-0201             
1 48241U 21031AH  25289.08842638 -.00000048  00000+0 -16486-3 0  9992
2 48241  87.9038 338.3549 0002084  90.4960 269.6409 13.14502818216315
ONEWEB-0207             
1 48242U 21031AJ  25289.14457764  .00000047  00000+0  91052-4 0  9992
2 48242  87.9042 338.2997 0001917  91.1060 269.0289 13.14502341216232
ONEWEB-0208             
1 48243U 21031AK  25289.12634325  .00000190  00000+0  47674-3 0  9990
2 48243  87.9042 338.3191 0002039  99.8769 260.2591 13.14503460216240
ONEWEB-0200             
1 48244U 21031AL  25289.08986792 -.00000123  00000+0 -36514-3 0  9993
2 48244  87.9040 338.3159 0001974  97.6937 262.4417 13.14501613216163
ONEWEB-0217             
1 48245U 21031AM  25289.10572817 -.00000140  00000+0 -41144-3 0  9990
2 48245  87.9049 338.3023 0002232 101.6391 258.4989 13.14503074216118
ONEWEB-0211             
1 48767U 21045A   25289.08387118 -.00000050  00000+0 -16492-3 0  9997
2 48767  87.8983 307.8423 0001911 104.1029 256.0314 13.16086270212339
ONEWEB-0223             
1 48768U 21045B   25289.12530872  .00000193  00000+0  47834-3 0  9990
2 48768  87.8973 307.8906 0001874 108.1048 252.0287 13.15548805212317
ONEWEB-0230             
1 48769U 21045C   25289.09678292 -.00000005  00000+0 -47842-4 0  9990
2 48769  87.8965 307.9282 0001710  91.3054 268.8272 13.15547800212577
ONEWEB-0237             
1 48770U 21045D   25289.08569465 -.00000100  00000+0 -30053-3 0  9993
2 48770  87.8976 307.9286 0001756 102.5642 257.5685 13.15547917212294
ONEWEB-0235             
1 48771U 21045E   25289.13640090  .00000094  00000+0  21580-3 0  9999
2 48771  87.8974 307.8895 0001827 109.4958 250.6369 13.15548425212291
ONEWEB-0242             
1 48772U 21045F   25289.13006000  .00000160  00000+0  39035-3 0  9995
2 48772  87.8982 307.8797 0001692  97.7274 262.4048 13.15547015212336
ONEWEB-0241             
1 48773U 21045G   25289.11738823  .00000151  00000+0  36829-3 0  9997
2 48773  87.8968 307.9258 0002112 104.8000 255.3364 13.15547165212247
