[{"OBJECT_NAME":"ONEWEB-0197","OBJECT_ID":"2021-031AC","EPOCH":"2025-10-16T02:48:01.975392","MEAN_MOTION":13.1450387,"ECCENTRICITY":0.0002162,"INCLINATION":87.905,"RA_OF_ASC_NODE":338.31,"ARG_OF_PERICENTER":96.7725,"MEAN_ANOMALY":263.3651,"EPHEMERIS_TYPE":0,"CLASSIFICATION_TYPE":"U","NORAD_CAT_ID":48236,"ELEMENT_SET_NO":999,"REV_AT_EPOCH":21612,"BSTAR":0.00034672,"MEAN_MOTION_DOT":1.41e-6,"MEAN_MOTION_DDOT":0},{"OBJECT_NAME":"ONEWEB-0194","OBJECT_ID":"2021-031AD","EPOCH":"2025-10-16T02:18:32.899968","MEAN_MOTION":13.14502536,"ECCENTRICITY":0.0001686,"INCLINATION":87.9042,"RA_OF_ASC_NODE":338.3276,"ARG_OF_PERICENTER":103.4917,"MEAN_ANOMALY":256.6401,"EPHEMERIS_TYPE":0,"CLASSIFICATION_TYPE":"U","NORAD_CAT_ID":48237,"ELEMENT_SET_NO":999,"REV_AT_EPOCH":21629,"BSTAR":-0.000401,"MEAN_MOTION_DOT":-1.36e-6,"MEAN_MOTION_DDOT":0},{"OBJECT_NAME":"ONEWEB-0193","OBJECT_ID":"2021-031AE","EPOCH":"2025-10-16T02:41:22.830720","MEAN_MOTION":13.1450213,"ECCENTRICITY":0.0001571,"INCLINATION":87.9034,"RA_OF_ASC_NODE":338.3219,"ARG_OF_PERICENTER":107.1291,"MEAN_ANOMALY":253.001,"EPHEMERIS_TYPE":0,"CLASSIFICATION_TYPE":"U","NORAD_CAT_ID":48238,"ELEMENT_SET_NO":999,"REV_AT_EPOCH":21624,"BSTAR":0.00046968,"MEAN_MOTION_DOT":1.87e-6,"MEAN_MOTION_DDOT":0},{"OBJECT_NAME":"ONEWEB-0191","OBJECT_ID":"2021-031AF","EPOCH":"2025-10-16T02:57:21.494016","MEAN_MOTION":13.14503826,"ECCENTRICITY":0.0001822,"INCLINATION":87.9051,"RA_OF_ASC_NODE":338.3031,"ARG_OF_PERICENTER":97.2968,"MEAN_ANOMALY":262.8369,"EPHEMERIS_TYPE":0,"CLASSIFICATION_TYPE":"U","NORAD_CAT_ID":48239,"ELEMENT_SET_NO":999,"REV_AT_EPOCH":21610,"BSTAR":0.00071825,"MEAN_MOTION_DOT":2.79e-6,"MEAN_MOTION_DDOT":0},{"OBJECT_NAME":"ONEWEB-0195","OBJECT_ID":"2021-031AG","EPOCH":"2025-10-16T02:24:15.079392","MEAN_MOTION":13.14503315,"ECCENTRICITY":0.0002014,"INCLINATION":87.9053,"RA_OF_ASC_NODE":338.3044,"ARG_OF_PERICENTER":98.4023,"MEAN_ANOMALY":261.7335,"EPHEMERIS_TYPE":0,"CLASSIFICATION_TYPE":"U","NORAD_CAT_ID":48240,"ELEMENT_SET_NO":999,"REV_AT_EPOCH":21608,"BSTAR":-0.0039325,"MEAN_MOTION_DOT":-1.445e-5,"MEAN_MOTION_DDOT":0},{"OBJECT_NAME":"ONEWEB-0201","OBJECT_ID":"2021-031AH","EPOCH":"2025-10-16T02:07:20.039232","MEAN_MOTION":13.14502818,"ECCENTRICITY":0.0002084,"INCLINATION":87.9038,"RA_OF_ASC_NODE":338.3549,"ARG_OF_PERICENTER":90.496,"MEAN_ANOMALY":269.6409,"EPHEMERIS_TYPE":0,"CLASSIFICATION_TYPE":"U","NORAD_CAT_ID":48241,"ELEMENT_SET_NO":999,"REV_AT_EPOCH":21631,"BSTAR":-0.00016486,"MEAN_MOTION_DOT":-4.8e-7,"MEAN_MOTION_DDOT":0},{"OBJECT_NAME":"ONEWEB-0207","OBJECT_ID":"2021-031AJ","EPOCH":"2025-10-16T03:28:11.508096","MEAN_MOTION":13.14502341,"ECCENTRICITY":0.0001917,"INCLINATION":87.9042,"RA_OF_ASC_NODE":338.2997,"ARG_OF_PERICENTER":91.106,"MEAN_ANOMALY":269.0289,"EPHEMERIS_TYPE":0,"CLASSIFICATION_TYPE":"U","NORAD_CAT_ID":48242,"ELEMENT_SET_NO":999,"REV_AT_EPOCH":21623,"BSTAR":9.1052e-5,"MEAN_MOTION_DOT":4.7e-7,"MEAN_MOTION_DDOT":0},{"OBJECT_NAME":"ONEWEB-0208","OBJECT_ID":"2021-031AK","EPOCH":"2025-10-16T03:01:56.056800","MEAN_MOTION":13.1450346,"ECCENTRICITY":0.0002039,"INCLINATION":87.9042,"RA_OF_ASC_NODE":338.3191,"ARG_OF_PERICENTER":99.8769,"MEAN_ANOMALY":260.2591,"EPHEMERIS_TYPE":0,"CLASSIFICATION_TYPE":"U","NORAD_CAT_ID":48243,"ELEMENT_SET_NO":999,"REV_AT_EPOCH":21624,"BSTAR":0.00047674,"MEAN_MOTION_DOT":1.9e-6,"MEAN_MOTION_DDOT":0},{"OBJECT_NAME":"ONEWEB-0200","OBJECT_ID":"2021-031AL","EPOCH":"2025-10-16T02:09:24.588288","MEAN_MOTION":13.14501613,"ECCENTRICITY":0.0001974,"INCLINATION":87.904,"RA_OF_ASC_NODE":338.3159,"ARG_OF_PERICENTER":97.6937,"MEAN_ANOMALY":262.4417,"EPHEMERIS_TYPE":0,"CLASSIFICATION_TYPE":"U","NORAD_CAT_ID":48244,"ELEMENT_SET_NO":999,"REV_AT_EPOCH":21616,"BSTAR":-0.00036514,"MEAN_MOTION_DOT":-1.23e-6,"MEAN_MOTION_DDOT":0},{"OBJECT_NAME":"ONEWEB-0217","OBJECT_ID":"2021-031AM","EPOCH":"2025-10-16T02:32:14.913888","MEAN_MOTION":13.14503074,"ECCENTRICITY":0.0002232,"INCLINATION":87.9049,"RA_OF_ASC_NODE":338.3023,"ARG_OF_PERICENTER":101.6391,"MEAN_ANOMALY":258.4989,"EPHEMERIS_TYPE":0,"CLASSIFICATION_TYPE":"U","NORAD_CAT_ID":48245,"ELEMENT_SET_NO":999,"REV_AT_EPOCH":21611,"BSTAR":-0.00041144,"MEAN_MOTION_DOT":-1.4e-6,"MEAN_MOTION_DDOT":0},{"OBJECT_NAME":"ONEWEB-0211","OBJECT_ID":"2021-045A","EPOCH":"2025-10-16T02:00:46.469952","MEAN_MOTION":13.1608627,"ECCENTRICITY":0.0001911,"INCLINATION":87.8983,"RA_OF_ASC_NODE":307.8423,"ARG_OF_PERICENTER":104.1029,"MEAN_ANOMALY":256.0314,"EPHEMERIS_TYPE":0,"CLASSIFICATION_TYPE":"U","NORAD_CAT_ID":48767,"ELEMENT_SET_NO":999,"REV_AT_EPOCH":21233,"BSTAR":-0.00016492,"MEAN_MOTION_DOT":-5.0e-7,"MEAN_MOTION_DDOT":0},{"OBJECT_NAME":"ONEWEB-0223","OBJECT_ID":"2021-045B","EPOCH":"2025-10-16T03:00:26.673408","MEAN_MOTION":13.15548805,"ECCENTRICITY":0.0001874,"INCLINATION":87.8973,"RA_OF_ASC_NODE":307.8906,"ARG_OF_PERICENTER":108.1048,"MEAN_ANOMALY":252.0287,"EPHEMERIS_TYPE":0,"CLASSIFICATION_TYPE":"U","NORAD_CAT_ID":48768,"ELEMENT_SET_NO":999,"REV_AT_EPOCH":21231,"BSTAR":0.00047834,"MEAN_MOTION_DOT":1.93e-6,"MEAN_MOTION_DDOT":0},{"OBJECT_NAME":"ONEWEB-0230","OBJECT_ID":"2021-045C","EPOCH":"2025-10-16T02:19:22.044288","MEAN_MOTION":13.155478,"ECCENTRICITY":0.000171,"INCLINATION":87.8965,"RA_OF_ASC_NODE":307.9282,"ARG_OF_PERICENTER":91.3054,"MEAN_ANOMALY":268.8272,"EPHEMERIS_TYPE":0,"CLASSIFICATION_TYPE":"U","NORAD_CAT_ID":48769,"ELEMENT_SET_NO":999,"REV_AT_EPOCH":21257,"BSTAR":-4.7842e-5,"MEAN_MOTION_DOT":-5.0e-8,"MEAN_MOTION_DDOT":0},{"OBJECT_NAME":"ONEWEB-0237","OBJECT_ID":"2021-045D","EPOCH":"2025-10-16T02:03:24.017760","MEAN_MOTION":13.15547917,"ECCENTRICITY":0.0001756,"INCLINATION":87.8976,"RA_OF_ASC_NODE":307.9286,"ARG_OF_PERICENTER":102.5642,"MEAN_ANOMALY":257.5685,"EPHEMERIS_TYPE":0,"CLASSIFICATION_TYPE":"U","NORAD_CAT_ID":48770,"ELEMENT_SET_NO":999,"REV_AT_EPOCH":21229,"BSTAR":-0.00030053,"MEAN_MOTION_DOT":-1.0e-6,"MEAN_MOTION_DDOT":0},{"OBJECT_NAME":"ONEWEB-0235","OBJECT_ID":"2021-045E","EPOCH":"2025-10-16T03:16:25.037760","MEAN_MOTION":13.15548425,"ECCENTRICITY":0.0001827,"INCLINATION":87.8974,"RA_OF_ASC_NODE":307.8895,"ARG_OF_PERICENTER":109.4958,"MEAN_ANOMALY":250.6369,"EPHEMERIS_TYPE":0,"CLASSIFICATION_TYPE":"U","NORAD_CAT_ID":48771,"ELEMENT_SET_NO":999,"REV_AT_EPOCH":21229,"BSTAR":0.0002158,"MEAN_MOTION_DOT":9.4e-7,"MEAN_MOTION_DDOT":0},{"OBJECT_NAME":"ONEWEB-0242","OBJECT_ID":"2021-045F","EPOCH":"2025-10-16T03:07:17.184000","MEAN_MOTION":13.15547015,"ECCENTRICITY":0.0001692,"INCLINATION":87.8982,"RA_OF_ASC_NODE":307.8797,"ARG_OF_PERICENTER":97.7274,"MEAN_ANOMALY":262.4048,"EPHEMERIS_TYPE":0,"CLASSIFICATION_TYPE":"U","NORAD_CAT_ID":48772,"ELEMENT_SET_NO":999,"REV_AT_EPOCH":21233,"BSTAR":0.00039035,"MEAN_MOTION_DOT":1.6e-6,"MEAN_MOTION_DDOT":0},{"OBJECT_NAME":"ONEWEB-0241","OBJECT_ID":"2021-045G","EPOCH":"2025-10-16T02:49:02.343072","MEAN_MOTION":13.15547165,"ECCENTRICITY":0.0002112,"INCLINATION":87.8968,"RA_OF_ASC_NODE":307.9258,"ARG_OF_PERICENTER":104.8,"MEAN_ANOMALY":255.3364,"EPHEMERIS_TYPE":0,"CLASSIFICATION_TYPE":"U","NORAD_CAT_ID":48773,"ELEMENT_SET_NO":999,"REV_AT_EPOCH":21224,"BSTAR":0.00036829,"MEAN_MOTION_DOT":1.51e-6,"MEAN_MOTION_DDOT":0}]
